NORAD_CAT_ID,OBJECT_NAME,OBJECT_TYPE,EPOCH,MEAN_MOTION,ECCENTRICITY,INCLINATION,RA_OF_ASC_NODE,ARG_OF_PERICENTER,MEAN_ANOMALY,BSTAR,MEAN_MOTION_DOT,MEAN_MOTION_DDOT,TLE_LINE0,TLE_LINE1,TLE_LINE2,SEMIMAJOR_AXIS,PERIOD,APOGEE,PERIGEE,DECAYED
49175.0,STARLINK-3087,PAYLOAD,2023-02-04 14:30:57,14.98331058,0.0003019,69.9976,241.279,270.4774,89.6039,8.4851e-05,9.2e-06,0.0,0 STARLINK-3087,1 49175U 21082AX  23035.60483706  .00000920  00000-0  84851-4 0  9997,2 49175  69.9976 241.2790 0003019 270.4774  89.6039 14.98331058 77341,6950.19,96.107,574.153,569.956,0.0
49175.0,STARLINK-3087,PAYLOAD,2023-02-04 20:55:29,14.98333317,0.0002947,69.9983,240.6057,270.3341,89.748,0.00010663,1.18e-05,0.0,0 STARLINK-3087,1 49175U 21082AX  23035.87187495  .00001180  00000-0  10663-3 0  9990,2 49175  69.9983 240.6057 0002947 270.3341  89.7480 14.98333317 77381,6950.183,96.107,574.096,569.999,0.0
49175.0,STARLINK-3087,PAYLOAD,2023-02-05 14:32:59,14.9832967,0.0002863,69.9979,238.7538,269.7933,90.2898,5.567e-05,5.71e-06,0.0,0 STARLINK-3087,1 49175U 21082AX  23036.60623854  .00000571  00000-0  55670-4 0  9997,2 49175  69.9979 238.7538 0002863 269.7933  90.2898 14.98329670 77493,6950.194,96.107,574.049,570.069,0.0
49175.0,STARLINK-3087,PAYLOAD,2023-02-05 22:33:39,14.98329518,0.0002885,69.9982,237.9122,269.4055,90.6774,4.3379e-05,4.25e-06,0.0,0 STARLINK-3087,1 49175U 21082AX  23036.94003886  .00000425  00000-0  43379-4 0  9992,2 49175  69.9982 237.9122 0002885 269.4055  90.6774 14.98329518 77547,6950.194,96.107,574.065,570.054,0.0
49175.0,STARLINK-3087,PAYLOAD,2023-02-06 12:58:51,14.98332164,0.0002862,69.9982,236.3973,269.0935,90.9896,2.5819e-05,2.15e-06,0.0,0 STARLINK-3087,1 49175U 21082AX  23037.54087813  .00000215  00000-0  25819-4 0  9997,2 49175  69.9982 236.3973 0002862 269.0935  90.9896 14.98332164 77631,6950.186,96.107,574.04,570.062,0.0
49175.0,STARLINK-3087,PAYLOAD,2023-02-06 20:59:32,14.98333974,0.000285,69.9983,235.5553,268.5863,91.4969,2.2369e-05,1.74e-06,0.0,0 STARLINK-3087,1 49175U 21082AX  23037.87467645  .00000174  00000-0  22369-4 0  9999,2 49175  69.9983 235.5553 0002850 268.5863  91.4969 14.98333974 77680,6950.181,96.107,574.026,570.065,0.0
49175.0,STARLINK-3087,PAYLOAD,2023-02-07 14:37:00,14.98332945,0.0002867,69.9984,233.7041,269.298,90.7851,9.1943e-05,1.004e-05,0.0,0 STARLINK-3087,1 49175U 21082AX  23038.60903478  .00001004  00000-0  91943-4 0  9997,2 49175  69.9984 233.7041 0002867 269.2980  90.7851 14.98332945 77790,6950.184,96.107,574.041,570.056,0.0
49175.0,STARLINK-3087,PAYLOAD,2023-02-07 21:01:32,14.98334006,0.0002869,69.9984,233.0309,269.3886,90.6944,0.00010124,1.115e-05,0.0,0 STARLINK-3087,1 49175U 21082AX  23038.87607395  .00001115  00000-0  10124-3 0  9999,2 49175  69.9984 233.0309 0002869 269.3886  90.6944 14.98334006 77835,6950.181,96.107,574.04,570.051,0.0
49175.0,STARLINK-3087,PAYLOAD,2023-02-08 00:13:48,14.98336653,0.0002851,69.9985,232.6943,269.1732,90.91,0.0001298,1.456e-05,0.0,0 STARLINK-3087,1 49175U 21082AX  23039.00959147  .00001456  00000-0  12980-3 0  9990,2 49175  69.9985 232.6943 0002851 269.1732  90.9100 14.98336653 77853,6950.172,96.107,574.019,570.056,0.0
49175.0,STARLINK-3087,PAYLOAD,2023-02-08 13:02:53,14.98330325,0.0002674,69.9992,231.348,267.6218,92.4635,5.2941e-05,5.39e-06,0.0,0 STARLINK-3087,1 49175U 21082AX  23039.54367723  .00000539  00000-0  52941-4 0  9995,2 49175  69.9992 231.3480 0002674 267.6218  92.4635 14.98330325 77937,6950.192,96.107,573.915,570.198,0.0
49175.0,STARLINK-3087,PAYLOAD,2023-02-08 21:03:34,14.9832997,0.0002689,69.9992,230.5065,267.951,92.1341,4.0991e-05,3.96e-06,0.0,0 STARLINK-3087,1 49175U 21082AX  23039.87747782  .00000396  00000-0  40991-4 0  9991,2 49175  69.9992 230.5065 0002689 267.9510  92.1341 14.98329970 77981,6950.193,96.107,573.927,570.189,0.0
49175.0,STARLINK-3087,PAYLOAD,2023-02-09 00:15:50,14.98329622,0.0002687,69.9992,230.1699,267.9879,92.0972,0.00013527,1.521e-05,0.0,0 STARLINK-3087,1 49175U 21082AX  23040.01099628  .00001521  00000-0  13527-3 0  9993,2 49175  69.9992 230.1699 0002687 267.9879  92.0972 14.98329622 78003,6950.194,96.107,573.927,570.192,0.0
49175.0,STARLINK-3087,PAYLOAD,2023-02-09 19:29:26,14.98331435,0.0002719,69.9992,228.1498,267.3749,92.7099,4.0622e-05,3.92e-06,0.0,0 STARLINK-3087,1 49175U 21082AX  23040.81211621  .00000392  00000-0  40622-4 0  9992,2 49175  69.9992 228.1498 0002719 267.3749  92.7099 14.98331435 78128,6950.188,96.107,573.943,570.164,0.0
49175.0,STARLINK-3087,PAYLOAD,2023-02-09 21:05:34,14.98332407,0.0002766,69.999,227.9813,268.1266,91.9577,4.7596e-05,4.75e-06,0.0,0 STARLINK-3087,1 49175U 21082AX  23040.87887562  .00000475  00000-0  47596-4 0  9990,2 49175  69.9990 227.9813 0002766 268.1266  91.9577 14.98332407 78132,6950.185,96.107,573.973,570.128,0.0
49175.0,STARLINK-3087,PAYLOAD,2023-02-10 16:19:11,14.9833383,0.0002877,69.9988,225.961,269.0722,91.0107,0.00011073,1.229e-05,0.0,0 STARLINK-3087,1 49175U 21082AX  23041.67999295  .00001229  00000-0  11073-3 0  9994,2 49175  69.9988 225.9610 0002877 269.0722  91.0107 14.98333830 78256,6950.181,96.107,574.046,570.046,0.0
49175.0,STARLINK-3087,PAYLOAD,2023-02-10 21:07:35,14.98334829,0.0002873,69.9989,225.456,269.2282,90.8548,0.00011841,1.32e-05,0.0,0 STARLINK-3087,1 49175U 21082AX  23041.88027202  .00001320  00000-0  11841-3 0  9992,2 49175  69.9989 225.4560 0002873 269.2282  90.8548 14.98334829 78283,6950.178,96.107,574.04,570.046,0.0
49175.0,STARLINK-3087,PAYLOAD,2023-02-11 05:08:15,14.98334843,0.0002871,69.9989,224.6143,268.9319,91.1511,7.9799e-05,8.59e-06,0.0,0 STARLINK-3087,1 49175U 21082AX  23042.21407211  .00000859  00000-0  79799-4 0  9995,2 49175  69.9989 224.6143 0002871 268.9319  91.1511 14.98334843 78332,6950.178,96.107,574.038,570.048,0.0
49175.0,STARLINK-3087,PAYLOAD,2023-02-11 17:57:20,14.98329709,0.000286,69.9989,223.2676,270.3295,89.7536,5.2488e-05,5.33e-06,0.0,0 STARLINK-3087,1 49175U 21082AX  23042.74815614  .00000533  00000-0  52488-4 0  9998,2 49175  69.9989 223.2676 0002860 270.3295  89.7536 14.98329709 78410,6950.194,96.107,574.047,570.071,0.0
49175.0,STARLINK-3087,PAYLOAD,2023-02-12 11:34:49,14.98332222,0.0002721,69.9995,221.4163,266.7821,93.3026,2.4788e-05,2.03e-06,0.0,0 STARLINK-3087,1 49175U 21082AX  23043.48251550  .00000203  00000-0  24788-4 0  9999,2 49175  69.9995 221.4163 0002721 266.7821  93.3026 14.98332222 78529,6950.186,96.107,573.942,570.16,0.0
49175.0,STARLINK-3087,PAYLOAD,2023-02-13 05:12:17,14.98334381,0.0003047,69.9986,219.5636,270.61,89.471,3.4149e-05,3.14e-06,0.0,0 STARLINK-3087,1 49175U 21082AX  23044.21687298  .00000314  00000-0  34149-4 0  9998,2 49175  69.9986 219.5636 0003047 270.6100  89.4710 14.98334381 78634,6950.179,96.107,574.162,569.927,0.0
49175.0,STARLINK-3087,PAYLOAD,2023-02-13 11:36:50,14.98332551,0.0002852,69.9992,218.8904,269.0537,91.0296,0.00013365,1.502e-05,0.0,0 STARLINK-3087,1 49175U 21082AX  23044.48391243  .00001502  00000-0  13365-3 0  9995,2 49175  69.9992 218.8904 0002852 269.0537  91.0296 14.98332551 78679,6950.185,96.107,574.032,570.068,0.0
49175.0,STARLINK-3087,PAYLOAD,2023-02-14 11:38:51,14.98332305,0.0002919,69.9994,216.3659,270.8094,89.2731,8.0921e-05,8.73e-06,0.0,0 STARLINK-3087,1 49175U 21082AX  23045.48531345  .00000873  00000-0  80921-4 0  9998,2 49175  69.9994 216.3659 0002919 270.8094  89.2731 14.98332305 78820,6950.186,96.107,574.08,570.022,0.0
49175.0,STARLINK-3087,PAYLOAD,2023-02-14 18:03:23,14.98332449,0.0002954,69.9978,215.6924,269.8795,90.2026,8.048e-05,8.67e-06,0.0,0 STARLINK-3087,1 49175U 21082AX  23045.75235254  .00000867  00000-0  80480-4 0  9991,2 49175  69.9978 215.6924 0002954 269.8795  90.2026 14.98332449 78866,6950.185,96.107,574.103,569.997,0.0
49175.0,STARLINK-3087,PAYLOAD,2023-02-15 11:40:51,14.98333065,0.0002909,69.9996,213.841,270.4865,89.5961,6.5237e-05,6.86e-06,0.0,0 STARLINK-3087,1 49175U 21082AX  23046.48671175  .00000686  00000-0  65237-4 0  9990,2 49175  69.9996 213.8410 0002909 270.4865  89.5961 14.98333065 78978,6950.183,96.107,574.07,570.027,0.0
49175.0,STARLINK-3087,PAYLOAD,2023-02-15 13:16:59,14.98333504,0.0003018,69.9984,213.6727,270.3527,89.7286,7.68e-05,8.24e-06,0.0,0 STARLINK-3087,1 49175U 21082AX  23046.55347091  .00000824  00000-0  76800-4 0  9997,2 49175  69.9984 213.6727 0003018 270.3527  89.7286 14.98333504 78981,6950.182,96.107,574.145,569.949,0.0
49175.0,STARLINK-3087,PAYLOAD,2023-02-15 21:17:39,14.98340721,0.0003127,69.9978,212.8301,271.4604,88.6197,0.00012729,1.426e-05,0.0,0 STARLINK-3087,1 49175U 21082AX  23046.88726451  .00001426  00000-0  12729-3 0  9992,2 49175  69.9978 212.8301 0003127 271.4604  88.6197 14.98340721 79037,6950.16,96.106,574.198,569.851,0.0
49175.0,STARLINK-3087,PAYLOAD,2023-02-16 13:19:00,14.98336532,0.0002926,69.9971,211.1468,268.7833,91.2991,3.0177e-05,2.67e-06,0.0,0 STARLINK-3087,1 49175U 21082AX  23047.55486724  .00000267  00000-0  30177-4 0  9993,2 49175  69.9971 211.1468 0002926 268.7833  91.2991 14.98336532 79133,6950.173,96.107,574.071,570.004,0.0
49175.0,STARLINK-3087,PAYLOAD,2023-02-16 21:19:40,14.98341218,0.0003304,69.9989,210.3061,271.342,88.7361,0.00014403,1.626e-05,0.0,0 STARLINK-3087,1 49175U 21082AX  23047.88866035  .00001626  00000-0  14403-3 0  9999,2 49175  69.9989 210.3061 0003304 271.3420  88.7361 14.98341218 79189,6950.158,96.106,574.32,569.727,0.0
49175.0,STARLINK-3087,PAYLOAD,2023-02-17 10:08:45,14.98326834,0.0003526,69.9973,208.9585,274.7992,85.2764,-7.1094e-05,-9.41e-06,0.0,0 STARLINK-3087,1 49175U 21082AX  23048.42275358 -.00000941  00000-0 -71094-4 0  9993,2 49175  69.9973 208.9585 0003526 274.7992  85.2764 14.98326834 79268,6950.203,96.107,574.518,569.617,0.0
49175.0,STARLINK-3087,PAYLOAD,2023-02-17 19:45:34,14.98330964,0.0003516,69.9995,207.9498,280.1067,79.9695,-4.2592e-05,-6.01e-06,0.0,0 STARLINK-3087,1 49175U 21082AX  23048.82331024 -.00000601  00000-0 -42592-4 0  9994,2 49175  69.9995 207.9498 0003516 280.1067  79.9695 14.98330964 79326,6950.19,96.107,574.499,569.611,0.0
